[{"OBJECT_NAME":"STARLINK-6235","OBJECT_ID":"2023-088AY","EPOCH":"2026-03-09T22:00:01.999584","MEAN_MOTION":15.06741931,"ECCENTRICITY":0.00010958,"INCLINATION":43.0008,"RA_OF_ASC_NODE":92.9262,"ARG_OF_PERICENTER":310.061,"MEAN_ANOMALY":184.0636,"EPHEMERIS_TYPE":0,"CLASSIFICATION_TYPE":"U","NORAD_CAT_ID":57094,"ELEMENT_SET_NO":999,"REV_AT_EPOCH":577,"BSTAR":0.0034794355,"MEAN_MOTION_DOT":0.00052796,"MEAN_MOTION_DDOT":0},{"OBJECT_NAME":"CZ-6A DEB","OBJECT_ID":"2022-151AEC","EPOCH":"2026-03-09T16:07:43.414464","MEAN_MOTION":15.01082395,"ECCENTRICITY":0.0040922,"INCLINATION":98.632,"RA_OF_ASC_NODE":144.2747,"ARG_OF_PERICENTER":190.1613,"MEAN_ANOMALY":169.8786,"EPHEMERIS_TYPE":0,"CLASSIFICATION_TYPE":"U","NORAD_CAT_ID":56604,"ELEMENT_SET_NO":999,"REV_AT_EPOCH":16341,"BSTAR":0.005850488,"MEAN_MOTION_DOT":0.00076879,"MEAN_MOTION_DDOT":0}]
